[{"OBJECT_NAME":"OBJECT F","OBJECT_ID":"2022-023F","EPOCH":"2026-03-09T23:55:35.397408","MEAN_MOTION":15.18257694,"ECCENTRICITY":0.01194645,"INCLINATION":63.4547,"RA_OF_ASC_NODE":250.628,"ARG_OF_PERICENTER":343.8947,"MEAN_ANOMALY":15.838,"EPHEMERIS_TYPE":0,"CLASSIFICATION_TYPE":"U","NORAD_CAT_ID":51951,"ELEMENT_SET_NO":999,"REV_AT_EPOCH":22265,"BSTAR":0.00028900174,"MEAN_MOTION_DOT":6.929e-5,"MEAN_MOTION_DDOT":0},{"OBJECT_NAME":"STARLINK-35421","OBJECT_ID":"2025-235E","EPOCH":"2026-03-09T17:13:22.932192","MEAN_MOTION":15.30194608,"ECCENTRICITY":6.507e-5,"INCLINATION":53.1566,"RA_OF_ASC_NODE":245.2899,"ARG_OF_PERICENTER":92.7123,"MEAN_ANOMALY":267.3952,"EPHEMERIS_TYPE":0,"CLASSIFICATION_TYPE":"U","NORAD_CAT_ID":66062,"ELEMENT_SET_NO":999,"REV_AT_EPOCH":2292,"BSTAR":0.0013205713,"MEAN_MOTION_DOT":0.00038951,"MEAN_MOTION_DDOT":0}]
